OBJECT_NAME,OBJECT_ID,EPOCH,MEAN_MOTION,ECCENTRICITY,INCLINATION,RA_OF_ASC_NODE,ARG_OF_PERICENTER,MEAN_ANOMALY,EPHEMERIS_TYPE,CLASSIFICATION_TYPE,NORAD_CAT_ID,ELEMENT_SET_NO,REV_AT_EPOCH,BSTAR,MEAN_MOTION_DOT,MEAN_MOTION_DDOT
LEMUR-2-BASS,2023-174D,2026-05-19T05:07:55.594560,15.42064029,.00055961,97.3846,223.5451,268.6790,91.3816,0,U,58259,999,14089,.23778494E-3,.10076E-3,0
PLATERO,2023-174G,2026-05-18T12:17:35.802816,15.61161795,.00048838,97.3935,235.2317,196.2598,163.8503,0,U,58262,999,14155,.24241285E-3,.20384E-3,0
BRO-11,2023-174J,2026-05-19T06:52:53.630112,15.27044357,.00089603,97.3905,216.4020,315.9402,44.1122,0,U,58264,999,14034,.14975798E-3,.3903E-4,0
FLOCK 4Q-16,2023-174R,2026-05-19T05:15:50.806656,15.47881225,.00049425,97.3828,226.6871,255.7705,104.2996,0,U,58271,999,14109,.2638508E-3,.1365E-3,0
TIGER-6,2023-174S,2026-05-19T05:18:45.273312,15.96248555,.00085537,97.3795,237.4671,240.7333,119.3088,0,U,58272,999,14177,.82567347E-3,.340507E-2,.48400545E-4
FLOCK 4Q-11,2023-174T,2026-05-19T04:58:15.617280,15.48321572,.0004765,97.3873,227.2416,251.6420,108.4312,0,U,58273,999,14110,.25622672E-3,.13457E-3,0
FLOCK 4Q-36,2023-174U,2026-05-19T04:57:47.614176,15.55707391,.0006499,97.3851,230.5967,230.6266,129.4414,0,U,58274,999,14132,.33052199E-3,.22687E-3,0
GENMAT-1,2023-174W,2026-05-19T03:56:00.666240,15.34064021,.00051522,97.3680,217.0379,290.4605,69.6085,0,U,58276,999,14052,.18249592E-3,.5937E-4,0
FLOCK 4Q-28,2023-174AA,2026-05-19T04:51:22.529376,15.53058915,.00046659,97.3885,229.4856,230.9596,129.1242,0,U,58280,999,14124,.30818733E-3,.19184E-3,0
AETHER-1,2023-174AB,2026-05-19T04:46:26.456448,15.73445633,.0005508,97.3818,231.5451,223.5784,136.5045,0,U,58281,999,14138,.6134712E-3,.85701E-3,0
FLOCK 4Q-27,2023-174AC,2026-05-19T04:51:06.250752,15.52907388,.00043121,97.3816,228.9524,229.0816,131.0064,0,U,58282,999,14125,.26291716E-3,.16256E-3,0
FLOCK 4Q-26,2023-174AE,2026-05-19T05:04:54.257376,15.55258073,.00053833,97.3877,230.6758,238.6787,121.3940,0,U,58284,999,14132,.31647002E-3,.21353E-3,0
FLOCK 4Q-31,2023-174AF,2026-05-19T05:58:34.219488,15.55327103,.00056412,97.3910,230.3793,234.0218,126.0514,0,U,58285,999,14128,.32906675E-3,.22267E-3,0
FLOCK 4Q-30,2023-174AG,2026-05-19T05:27:25.328736,15.55592349,.0004469,97.3933,230.5805,229.3583,130.7283,0,U,58286,999,14129,.38125994E-3,.26073E-3,0
PICO-01B009,2023-174AH,2026-05-18T22:31:38.274816,15.74071416,.0004782,97.3796,233.8337,208.8621,151.2380,0,U,58287,999,14155,.5736E-3,.82244E-3,0
ICEYE-X31,2023-174AJ,2026-05-19T07:12:26.097120,15.33248606,.00036484,97.3786,215.0716,88.4982,271.6678,0,U,58288,999,14032,.33908218E-3,.1082E-3,0
FALCONSAT-10,2023-174AM,2026-05-19T05:01:35.485536,15.27389682,.00068327,97.3807,215.5536,294.1423,65.9101,0,U,58291,999,14034,.11262588E-3,.2947E-4,0
ICEYE-X34,2023-174AQ,2026-05-19T05:33:24.783840,15.60549040,.00053825,97.3888,229.1340,226.3661,133.7150,0,U,58294,999,14122,.56849565E-3,.46998E-3,0
SPACEVAN-001,2023-174AR,2026-05-18T18:48:22.779936,15.57808293,.00080819,97.3995,234.6972,163.4966,196.6554,0,U,58295,999,14156,.13642366E-3,.10051E-3,0
PELICAN-1,2023-174AS,2026-05-19T05:43:58.952064,15.72777135,.00018157,97.3888,237.7821,13.3633,346.7678,0,U,58296,999,14161,.14673223E-3,.19658E-3,0
UMBRA-07,2023-174AT,2026-05-19T02:59:14.758368,15.08529993,.00042647,97.3799,195.9980,154.6305,205.5134,0,U,58297,999,13903,.38631217E-3,.5971E-4,0
SPIP,2023-174AU,2026-05-19T06:19:09.533856,15.27381913,.00076665,97.3845,216.0547,291.0863,68.9556,0,U,58298,999,14036,.10822731E-3,.2829E-4,0
AETHER-2,2023-174AV,2026-05-19T04:15:54.950112,15.34184574,.00056827,97.3900,222.4035,246.8919,113.1725,0,U,58299,999,14078,.11395643E-3,.3691E-4,0
ION SCV-013,2023-174AW,2026-05-19T07:24:30.610368,15.04978290,.00975468,97.6167,194.7692,294.6537,64.4554,0,U,58300,999,13719,.88955166E-4,.133E-4,0
LEO EXPRESS 1,2023-174AX,2026-05-19T05:30:38.148480,15.34460437,.00734664,97.5190,224.1415,224.3108,135.2240,0,U,58301,999,14045,.21360582E-3,.7693E-4,0
ICEYE-X35,2023-174AY,2026-05-19T06:34:15.464640,15.49752302,.00074381,97.3802,223.1078,288.4731,71.5711,0,U,58302,999,14086,.46288003E-3,.25694E-3,0
FLOCK 4Q-29,2023-174BA,2026-05-19T04:38:42.217152,15.53750800,.00051168,97.3932,229.9726,223.7998,136.2851,0,U,58304,999,14125,.29330621E-3,.18716E-3,0
FLOCK 4Q-22,2023-174BC,2026-05-19T04:56:35.530656,15.57268830,.00046267,97.3816,230.4033,218.6335,141.4590,0,U,58306,999,14135,.29824121E-3,.21668E-3,0
FLOCK 4Q-33,2023-174BE,2026-05-19T05:57:35.692992,15.55730202,.00054622,97.3856,230.2865,215.9585,144.1303,0,U,58308,999,14133,.29232008E-3,.20058E-3,0
FLOCK 4Q-35,2023-174BF,2026-05-19T03:41:59.379936,15.54742598,.00050745,97.3878,230.2602,232.8885,127.1905,0,U,58309,999,14129,.3242854E-3,.21472E-3,0
FLOCK 4Q-7,2023-174BQ,2026-05-19T05:43:51.854304,15.53566056,.00062093,97.3912,229.7867,226.7117,133.3619,0,U,58318,999,14125,.32280098E-3,.20481E-3,0
FLOCK 4Q-2,2023-174BS,2026-05-19T06:07:22.063872,15.48242290,.00054018,97.3829,227.0391,224.7040,135.3776,0,U,58320,999,14112,.24281031E-3,.12713E-3,0
PROTOMETHEE,2023-174BT,2026-05-19T06:09:46.064160,15.31077158,.00051063,97.3771,217.8289,271.5919,88.4738,0,U,58321,999,14054,.74869663E-4,.2171E-4,0
FLOCK 4Q-9,2023-174BU,2026-05-19T03:41:01.221504,15.48284461,.00058549,97.3869,226.9936,225.7161,134.3610,0,U,58322,999,14109,.32214643E-3,.16932E-3,0
OBSERVER-1A,2023-174BV,2026-05-19T06:42:35.820864,15.37940234,.0006527,97.3940,222.8245,253.3450,106.7078,0,U,58323,999,14076,.18485563E-3,.6817E-4,0
PICO-01A003,2023-174BY,2026-05-19T06:08:45.031200,15.44834413,.000447,97.3795,224.1144,256.9220,103.1530,0,U,58326,999,14094,.28278122E-3,.13177E-3,0
FLOCK 4Q-4,2023-174BZ,2026-05-19T04:27:29.807424,15.47309600,.00046475,97.3824,226.2858,252.6939,107.3802,0,U,58327,999,14107,.2509407E-3,.1272E-3,0
FLOCK 4Q-13,2023-174CA,2026-05-19T03:40:42.058848,15.50318051,.00052118,97.4008,229.1493,240.7896,119.2834,0,U,58328,999,14117,.25053405E-3,.14115E-3,0
OUTPOST MISSION 2,2023-174CG,2026-05-19T07:16:36.568128,15.55463569,.00054207,97.3962,231.2116,209.5200,150.5749,0,U,58334,999,14133,.34419524E-3,.23414E-3,0
LEMUR-2-JK0903EM1407,2023-174CJ,2026-05-19T05:42:40.458528,15.50096661,.00051439,97.3900,228.9355,202.4034,157.6994,0,U,58336,999,14124,.29314927E-3,.16407E-3,0
LEMUR-2-MJR092620,2023-174CN,2026-05-19T04:40:12.889632,15.43744316,.00058528,97.3968,228.7172,208.2660,151.8272,0,U,58340,999,14117,.15395445E-3,.687E-4,0
O3B MPOWER F5,2023-175A,2026-05-19T02:59:07.556064,5.00115420,.00047142,0.0467,12.6015,59.3658,288.0848,0,U,58346,999,4798,0,-.19E-6,0
O3B MPOWER F6,2023-175B,2026-05-18T19:48:21.865248,5.00116026,.0004607,0.0519,5.6444,44.3299,310.0672,0,U,58347,999,4687,0,-.19E-6,0
HAIYANG-3A,2023-176A,2026-05-19T06:48:43.280928,14.34162885,.00108434,98.5465,217.5813,109.7226,250.5129,0,U,58349,999,13117,.4171932E-4,.73E-6,0
STARLINK-30907,2023-177B,2026-05-19T04:45:53.319456,15.27593542,.00012057,43.0047,312.1600,264.3752,95.6963,0,U,58352,999,13910,.13022734E-3,.3325E-4,0
STARLINK-30896,2023-177C,2026-05-19T02:34:30.334656,15.27582885,.00010259,42.9985,171.1187,278.1385,81.9350,0,U,58353,999,14060,-.11157549E-4,-.569E-5,0
STARLINK-30832,2023-177D,2026-05-19T04:35:01.612032,15.27578472,.00015107,43.0044,312.9599,264.7881,95.2798,0,U,58354,999,13895,.48579037E-4,.1075E-4,0
STARLINK-30903,2023-177E,2026-05-19T04:49:37.879104,15.27564366,.000122,43.0028,312.1897,250.3234,109.7486,0,U,58355,999,13901,-.63911244E-4,-.2019E-4,0
STARLINK-30905,2023-177F,2026-05-19T04:55:09.682752,15.27563495,.00017709,43.0053,312.1856,264.1129,95.9521,0,U,58356,999,13895,-.15144657E-3,-.4425E-4,0
STARLINK-30842,2023-177G,2026-05-19T04:04:21.996192,15.26684380,.00035417,43.0133,299.0320,280.1941,79.8511,0,U,58357,999,13916,.29278866E-3,.7589E-4,0
STARLINK-30858,2023-177H,2026-05-19T04:40:24.672000,15.27495312,.00012409,43.0032,312.1434,243.7675,116.3050,0,U,58358,999,13902,.74009891E-3,.20107E-3,0
STARLINK-30878,2023-177J,2026-05-19T05:05:33.928800,15.27570070,.00015327,43.0039,315.6690,257.5543,102.5137,0,U,58359,999,13897,-.31156734E-4,-.1119E-4,0
STARLINK-30897,2023-177K,2026-05-19T05:31:23.299392,15.27583903,.0001823,43.0002,326.8631,259.8835,100.1811,0,U,58360,999,13884,.22463985E-4,.356E-5,0
STARLINK-30885,2023-177L,2026-05-19T05:00:43.813152,15.27576321,.0002021,43.0063,312.2472,262.3211,97.7411,0,U,58361,999,13902,.31999592E-3,.8553E-4,0
STARLINK-30890,2023-177M,2026-05-18T11:50:31.971840,15.27588821,.00016551,43.0060,316.3351,253.8840,106.1830,0,U,58362,999,13885,.78492402E-4,.1899E-4,0
STARLINK-30909,2023-177N,2026-05-18T18:12:44.128512,15.27566399,.00020515,43.0041,314.8849,275.7651,84.2967,0,U,58363,999,13894,.12925909E-3,.3295E-4,0
STARLINK-30904,2023-177P,2026-05-19T04:53:52.909440,15.08020905,.0007763,43.0010,324.1244,267.0744,92.9212,0,U,58364,999,13887,.70025406E-3,.10771E-3,0
STARLINK-30918,2023-177Q,2026-05-18T13:45:03.800160,15.27584002,.00013383,43.0019,316.0734,253.8193,106.2512,0,U,58365,999,13890,-.94463993E-4,-.2861E-4,0
STARLINK-30892,2023-177R,2026-05-18T18:18:17.161632,15.27570867,.00017567,43.0019,314.9118,270.4446,89.6204,0,U,58366,999,13895,-.25999693E-4,-.977E-5,0
STARLINK-30891,2023-177S,2026-05-19T04:03:34.566048,15.27583243,.00014969,43.0012,312.8056,264.6840,95.3840,0,U,58367,999,13894,.14630152E-3,.3766E-4,0
STARLINK-30889,2023-177T,2026-05-19T03:58:02.404704,15.27584724,.00014764,43.0014,312.7733,283.8155,76.2532,0,U,58368,999,13900,.47442239E-3,.12818E-3,0
STARLINK-30870,2023-177U,2026-05-19T04:09:08.454528,15.27580851,.00011817,43.0010,312.8284,289.0075,71.0649,0,U,58369,999,13900,.31750453E-3,.8485E-4,0
STARLINK-30888,2023-177V,2026-05-19T04:42:12.206304,15.27584109,.00027037,43.0062,312.1382,262.1904,97.8641,0,U,58370,999,13902,.52143233E-4,.1173E-4,0
STARLINK-30859,2023-177W,2026-05-19T04:18:21.953664,15.27584656,.00013667,43.0021,312.8469,266.2271,93.8425,0,U,58371,999,13901,.48337623E-4,.1068E-4,0
